ONEWEB-0029             
1 45445U 20020X   24119.57188421 -.00000470  00000+0 -13609-2 0  9992
2 45445  87.9008 176.1369 0001834  97.0241 263.1095 13.11418067200479
ONEWEB-0068             
1 45446U 20020Y   24119.54671706  .00000264  00000+0  70987-3 0  9995
2 45446  87.9006 176.1270 0001962 102.7977 257.3370 13.11417021200426
ONEWEB-0046             
1 45447U 20020Z   24119.54428576  .00000199  00000+0  52478-3 0  9993
2 45447  87.9005 176.1397 0001921  89.3754 270.7594 13.11416202200421
ONEWEB-0063             
1 45448U 20020AA  24119.57350518 -.00000447  00000+0 -12958-2 0  9993
2 45448  87.9008 176.1356 0002110  89.4886 270.6484 13.11418962200510
ONEWEB-0019             
1 45449U 20020AB  24119.54753537  .00000044  00000+0  87434-4 0  9993
2 45449  87.9010 176.1415 0002286  99.2347 260.9039 13.11414468200352
ONEWEB-0094             
1 45450U 20020AC  24119.56836773  .00000085  00000+0  18562-3 0  9991
2 45450  87.9196 160.9917 0001903  96.8173 263.3175 13.17649824203647
ONEWEB-0087             
1 45451U 20020AD  24119.57998499 -.00000319  00000+0 -93536-3 0  9993
2 45451  87.9001 176.1078 0001761  98.2393 261.8935 13.11416775200401
ONEWEB-0082             
1 45452U 20020AE  24119.58162191 -.00000234  00000+0 -69559-3 0  9991
2 45452  87.9006 176.1102 0002110 100.2599 259.8766 13.11419034200495
ONEWEB-0050             
1 45453U 20020AF  24119.28091554  .00007836  00000+0  82640-3 0  9992
2 45453  88.0055  40.7739 0000157 179.7531 180.3697 14.89211517224196
ONEWEB-0034             
1 45454U 20020AG  24119.60111210  .00000459  00000+0  12592-2 0  9993
2 45454  87.9005 176.1242 0002040  98.3407 261.7952 13.11417820200410
ONEWEB-0060             
1 45455U 20020AH  24119.60922575  .00000509  00000+0  14001-2 0  9991
2 45455  87.9009 176.1210 0001925  95.0620 265.0728 13.11416372200376
ONEWEB-0086             
1 45456U 20020AJ  24119.55077401 -.00000059  00000+0 -20190-3 0  9994
2 45456  87.9003 176.1360 0001629 103.0541 257.0769 13.11414245200429
ONEWEB-0088             
1 45457U 20020AK  24119.60435652  .00000532  00000+0  14656-2 0  9990
2 45457  87.9001 176.0924 0001960  96.6840 263.4511 13.11416799200365
ONEWEB-0102             
1 47258U 20100A   24119.61072473  .00000230  00000+0  60358-3 0  9995
2 47258  87.8945 145.8851 0002231  94.0494 266.0889 13.12441567162472
ONEWEB-0109             
1 47259U 20100B   24119.54242085 -.00000011  00000+0 -67216-4 0  9996
2 47259  87.8947 145.8625 0002178  95.6431 264.4945 13.12441500162294
ONEWEB-0110             
1 47260U 20100C   24119.56624156 -.00000392  00000+0 -11238-2 0  9996
2 47260  87.8941 145.8655 0002130  99.0040 261.1330 13.12443033162469
ONEWEB-0111             
1 47261U 20100D   24119.59960773  .00000412  00000+0  11093-2 0  9998
2 47261  87.8945 145.8533 0002141  95.1104 265.0269 13.12444098162308
ONEWEB-0114             
1 47262U 20100E   24119.55353708 -.00000342  00000+0 -98735-3 0  9992
2 47262  87.8942 145.8800 0002604  92.6563 267.4864 13.12443063162250
ONEWEB-0117             
1 47263U 20100F   24119.54560077 -.00000101  00000+0 -31631-3 0  9996
2 47263  87.8947 145.8548 0002034  93.2444 266.8918 13.12440882162267
ONEWEB-0118             
1 47264U 20100G   24119.57736767 -.00000114  00000+0 -35214-3 0  9996
2 47264  87.8946 145.8523 0002531  83.9880 276.1537 13.12444296162468
ONEWEB-0119             
1 47265U 20100H   24119.60595368 -.00000819  00000+0 -23116-2 0  9990
2 47265  87.8946 145.8854 0002036  96.6833 263.4527 13.12430447162444
ONEWEB-0120             
1 47266U 20100J   24119.55208086 -.00000296  00000+0 -85794-3 0  9993
2 47266  87.8947 145.8846 0002142  96.1202 264.0171 13.12441894162462
ONEWEB-0121             
1 47267U 20100K   24119.54083500  .00000096  00000+0  23047-3 0  9994
2 47267  87.8941 145.8806 0001942  97.1227 263.0123 13.12442486162372
ONEWEB-0122             
1 47268U 20100L   24119.61216323  .00000163  00000+0  41899-3 0  9994
2 47268  87.8942 145.8710 0002209  97.3761 262.7618 13.12443003162292
ONEWEB-0123             
1 47269U 20100M   24119.60754805  .00000339  00000+0  90721-3 0  9999
2 47269  87.8945 145.8840 0002145  90.6815 269.4559 13.12442499162437
ONEWEB-0124             
1 47270U 20100N   24119.59643171  .00000408  00000+0  10998-2 0  9996
2 47270  87.8945 145.8823 0001849  99.8750 260.2587 13.12442688162316
ONEWEB-0125             
1 47271U 20100P   24119.57099636 -.00000241  00000+0 -70573-3 0  9999
2 47271  87.8947 145.8453 0001865  84.0394 276.0947 13.12445410162373
ONEWEB-0126             
1 47272U 20100Q   24119.59879514  .00000412  00000+0  11091-2 0  9990
2 47272  87.8943 145.8487 0002238  94.3395 265.7990 13.12444435162444
ONEWEB-0127             
1 47273U 20100R   24119.55988805 -.00000352  00000+0 -10139-2 0  9998
2 47273  87.8946 145.8830 0002202  94.3401 265.7979 13.12441623162464
ONEWEB-0128             
1 47274U 20100S   24119.58211946  .00000075  00000+0  17443-3 0  9993
2 47274  87.8953 145.8787 0002073 102.9501 257.1859 13.12448260162485
ONEWEB-0129             
1 47275U 20100T   24119.56147918 -.00000386  00000+0 -11091-2 0  9998
2 47275  87.8947 145.8531 0003699  90.6477 269.5075 13.12442317162413
ONEWEB-0130             
1 47276U 20100U   24119.59006903  .00000270  00000+0  71545-3 0  9991
2 47276  87.8944 145.8561 0002161  97.6792 262.4582 13.12442429162389
ONEWEB-0131             
1 47277U 20100V   24119.58689865  .00000158  00000+0  40309-3 0  9994
2 47277  87.8948 145.8700 0002006  97.7413 262.3944 13.12443774162428
ONEWEB-0132             
1 47278U 20100W   24119.53925023  .00000127  00000+0  31632-3 0  9994
2 47278  87.8949 145.8816 0001812  94.6120 265.5215 13.12442194162312
ONEWEB-0133             
1 47279U 20100X   24119.55512326 -.00000330  00000+0 -95209-3 0  9993
2 47279  87.8942 145.8797 0001975  97.5811 262.5542 13.12443168162472
ONEWEB-0134             
1 47280U 20100Y   24119.60118925  .00000412  00000+0  11093-2 0  9995
2 47280  87.8940 145.8590 0002189 100.9718 259.1657 13.12441438162451
ONEWEB-0135             
1 47281U 20100Z   24119.56941704 -.00000309  00000+0 -89329-3 0  9995
2 47281  87.8946 145.8778 0002085  96.3577 263.7789 13.12445202162474
ONEWEB-0136             
1 47282U 20100AA  24119.59165420  .00000351  00000+0  94021-3 0  9992
2 47282  87.8947 145.8421 0002426 104.5072 255.6325 13.12442234162403
ONEWEB-0137             
1 47283U 20100AB  24119.54877364 -.00000203  00000+0 -59933-3 0  9996
2 47283  87.8942 145.8774 0002215  92.0118 268.1264 13.12441031162302
ONEWEB-0138             
1 47284U 20100AC  24119.60435630  .00001219  00000+0  33529-2 0  9998
2 47284  87.8940 145.8788 0002258  95.6917 264.4469 13.12439415162397
ONEWEB-0139             
1 47285U 20100AD  24119.57577463 -.00000169  00000+0 -50594-3 0  9993
2 47285  87.8947 145.8550 0002089  95.9002 264.2365 13.12444415162469
ONEWEB-0140             
1 47286U 20100AE  24119.59802303  .00000449  00000+0  12134-2 0  9996
2 47286  87.8940 145.8555 0002188  97.1811 262.9567 13.12443094162438
ONEWEB-0141             
1 47287U 20100AF  24119.54161823  .00000084  00000+0  19693-3 0  9990
2 47287  87.8944 145.8659 0001997  87.5839 272.5518 13.12443177162411
ONEWEB-0142             
1 47288U 20100AG  24119.61150384  .00000229  00000+0  60219-3 0  9990
2 47288  87.8943 145.8446 0002326  91.6917 268.4478 13.12440494162413
ONEWEB-0143             
1 47289U 20100AH  24119.56465170 -.00000420  00000+0 -12027-2 0  9995
2 47289  87.8945 145.8735 0001998  91.9348 268.2009 13.12442510162387
ONEWEB-0144             
1 47290U 20100AJ  24119.53767216  .00000218  00000+0  57146-3 0  9995
2 47290  87.8944 145.8630 0002459  94.7471 265.3938 13.12441427162300
ONEWEB-0145             
1 47291U 20100AK  24119.58531494  .00000136  00000+0  34326-3 0  9992
2 47291  87.8944 145.8773 0002222  94.1620 265.9763 13.12443852162505
ONEWEB-0146             
1 47292U 20100AL  24119.58054148 -.00000002  00000+0 -39631-4 0  9998
2 47292  87.8945 145.8608 0001588  92.2805 267.8505 13.12444402162419
ONEWEB-0147             
1 47293U 20100AM  24119.54718997 -.00000158  00000+0 -47321-3 0  9990
2 47293  87.8942 145.8637 0002228 101.8858 258.2521 13.12440855162304
ONEWEB-0115             
1 48042U 21025A   24119.49774083  .00000134  00000+0  33122-3 0  9998
2 48042  87.8884 115.4438 0001853  90.1611 269.9730 13.13470650151243
ONEWEB-0152             
1 48043U 21025B   24119.51043679  .00000394  00000+0  10428-2 0  9993
2 48043  87.8888 115.4368 0001889  89.7786 270.3559 13.13469487151203
ONEWEB-0153             
1 48044U 21025C   24119.48820127 -.00000106  00000+0 -32467-3 0  9992
2 48044  87.8893 115.4278 0002120  89.4837 270.6535 13.13469780151194
ONEWEB-0154             
1 48045U 21025D   24119.48502915 -.00000169  00000+0 -49853-3 0  9991
2 48045  87.8890 115.4413 0002005  90.3475 269.7884 13.13470078151158
ONEWEB-0116             
1 48046U 21025E   24119.52628925  .00000248  00000+0  64493-3 0  9990
2 48046  87.8893 115.4005 0001776  90.3553 269.7780 13.13471814151301
ONEWEB-0150             
1 48047U 21025F   24119.50090629  .00000185  00000+0  47183-3 0  9990
2 48047  87.8886 115.4274 0002102  86.3319 273.8050 13.13470302151195
ONEWEB-0107             
1 48048U 21025G   24119.50248021  .00000257  00000+0  66927-3 0  9999
2 48048  87.8884 115.4250 0002299  84.9459 275.1933 13.13472930151176
ONEWEB-0101             
1 48049U 21025H   24119.54215224 -.00000161  00000+0 -47660-3 0  9992
2 48049  87.8893 115.4305 0002065  92.2117 267.9249 13.13469159151158
ONEWEB-0113             
1 48050U 21025J   24119.51994042  .00000323  00000+0  84930-3 0  9992
2 48050  87.8891 115.4171 0001831  89.9198 270.2141 13.13472116151235
ONEWEB-0112             
1 48051U 21025K   24119.50725147  .00000354  00000+0  93407-3 0  9993
2 48051  87.8885 115.4218 0001997  86.0345 274.1013 13.13469525151248
